[{"OBJECT_NAME":"STARLINK-30448","OBJECT_ID":"2023-147R","EPOCH":"2026-03-08T10:56:02.581152","MEAN_MOTION":15.02537394,"ECCENTRICITY":0.00010577,"INCLINATION":43.0037,"RA_OF_ASC_NODE":332.6498,"ARG_OF_PERICENTER":276.8117,"MEAN_ANOMALY":83.2605,"EPHEMERIS_TYPE":0,"CLASSIFICATION_TYPE":"U","NORAD_CAT_ID":57928,"ELEMENT_SET_NO":999,"REV_AT_EPOCH":13640,"BSTAR":9.280838e-5,"MEAN_MOTION_DOT":1.05e-5,"MEAN_MOTION_DDOT":0},{"OBJECT_NAME":"NAXING 1","OBJECT_ID":"2004-012B","EPOCH":"2026-03-09T22:31:20.183520","MEAN_MOTION":15.05443462,"ECCENTRICITY":0.00121665,"INCLINATION":98.0152,"RA_OF_ASC_NODE":92.9199,"ARG_OF_PERICENTER":69.4128,"MEAN_ANOMALY":290.8402,"EPHEMERIS_TYPE":0,"CLASSIFICATION_TYPE":"U","NORAD_CAT_ID":28221,"ELEMENT_SET_NO":999,"REV_AT_EPOCH":19231,"BSTAR":0.00025838798,"MEAN_MOTION_DOT":3.649e-5,"MEAN_MOTION_DDOT":0}]
